{
  "type": "FeatureCollection",
  "features": [
    {
      "type": "Feature",
      "properties": {
        "norad_id": 24876,
        "name": "GPS BIIR-2  (PRN 13)",
        "group": "gps-ops",
        "lat": -23.70199326107878,
        "lon": 88.70840038714634,
        "alt_km": 20164.95978555824,
        "timestamp": "2025-12-09T04:51:47.751845+00:00",
        "meta_object_name": "GPS BIIR-2  (PRN 13)",
        "meta_object_id": "1997-035A",
        "meta_epoch": "2025-12-08T05:53:26.454912",
        "meta_mean_motion": 2.00563507,
        "meta_eccentricity": 0.00967273,
        "meta_inclination": 55.8931,
        "meta_ra_of_asc_node": 106.0447,
        "meta_arg_of_pericenter": 57.0161,
        "meta_mean_anomaly": 303.881,
        "meta_ephemeris_type": 0,
        "meta_classification_type": "U",
        "meta_norad_cat_id": 24876,
        "meta_element_set_no": 999,
        "meta_rev_at_epoch": 20812,
        "meta_bstar": 0,
        "meta_mean_motion_dot": 1.5e-07,
        "meta_mean_motion_ddot": 0,
        "tle_line1": "1 24876U 97035A   25342.24544508  .00000015  00000+0  00000+0 0  9993",
        "tle_line2": "2 24876  55.8931 106.0447 0096727  57.0161 303.8810  2.00563507208127"
      },
      "geometry": {
        "type": "Point",
        "coordinates": [
          88.70840038714634,
          -23.70199326107878
        ]
      }
    },
    {
      "type": "Feature",
      "properties": {
        "norad_id": 26360,
        "name": "GPS BIIR-4  (PRN 20)",
        "group": "gps-ops",
        "lat": 47.37615523562247,
        "lon": 76.43343232511621,
        "alt_km": 20279.45291437402,
        "timestamp": "2025-12-09T04:51:47.751870+00:00",
        "meta_object_name": "GPS BIIR-4  (PRN 20)",
        "meta_object_id": "2000-025A",
        "meta_epoch": "2025-12-08T05:53:38.603616",
        "meta_mean_motion": 2.00567966,
        "meta_eccentricity": 0.00388423,
        "meta_inclination": 55.0425,
        "meta_ra_of_asc_node": 27.0197,
        "meta_arg_of_pericenter": 241.5588,
        "meta_mean_anomaly": 211.3182,
        "meta_ephemeris_type": 0,
        "meta_classification_type": "U",
        "meta_norad_cat_id": 26360,
        "meta_element_set_no": 999,
        "meta_rev_at_epoch": 18744,
        "meta_bstar": 0,
        "meta_mean_motion_dot": -8.7e-07,
        "meta_mean_motion_ddot": 0,
        "tle_line1": "1 26360U 00025A   25342.24558569 -.00000087  00000+0  00000+0 0  9998",
        "tle_line2": "2 26360  55.0425  27.0197 0038842 241.5588 211.3182  2.00567966187447"
      },
      "geometry": {
        "type": "Point",
        "coordinates": [
          76.43343232511621,
          47.37615523562247
        ]
      }
    },
    {
      "type": "Feature",
      "properties": {
        "norad_id": 26407,
        "name": "GPS BIIR-5  (PRN 22)",
        "group": "gps-ops",
        "lat": -54.21321074182182,
        "lon": 119.92929065724121,
        "alt_km": 19926.62564335663,
        "timestamp": "2025-12-09T04:51:47.751886+00:00",
        "meta_object_name": "GPS BIIR-5  (PRN 22)",
        "meta_object_id": "2000-040A",
        "meta_epoch": "2025-12-08T20:20:05.544960",
        "meta_mean_motion": 2.00567841,
        "meta_eccentricity": 0.0126224,
        "meta_inclination": 54.8917,
        "meta_ra_of_asc_node": 222.7238,
        "meta_arg_of_pericenter": 301.7361,
        "meta_mean_anomaly": 65.1974,
        "meta_ephemeris_type": 0,
        "meta_classification_type": "U",
        "meta_norad_cat_id": 26407,
        "meta_element_set_no": 999,
        "meta_rev_at_epoch": 18613,
        "meta_bstar": 0,
        "meta_mean_motion_dot": 1e-07,
        "meta_mean_motion_ddot": 0,
        "tle_line1": "1 26407U 00040A   25342.84728640  .00000010  00000+0  00000+0 0  9997",
        "tle_line2": "2 26407  54.8917 222.7238 0126224 301.7361  65.1974  2.00567841186133"
      },
      "geometry": {
        "type": "Point",
        "coordinates": [
          119.92929065724121,
          -54.21321074182182
        ]
      }
    },
    {
      "type": "Feature",
      "properties": {
        "norad_id": 27663,
        "name": "GPS BIIR-8  (PRN 16)",
        "group": "gps-ops",
        "lat": 30.940766412986996,
        "lon": -112.58032942288686,
        "alt_km": 19795.64226864517,
        "timestamp": "2025-12-09T04:51:47.751900+00:00",
        "meta_object_name": "GPS BIIR-8  (PRN 16)",
        "meta_object_id": "2003-005A",
        "meta_epoch": "2025-12-08T15:56:33.296928",
        "meta_mean_motion": 2.00571063,
        "meta_eccentricity": 0.0147293,
        "meta_inclination": 54.9243,
        "meta_ra_of_asc_node": 222.5404,
        "meta_arg_of_pericenter": 51.7448,
        "meta_mean_anomaly": 318.8801,
        "meta_ephemeris_type": 0,
        "meta_classification_type": "U",
        "meta_norad_cat_id": 27663,
        "meta_element_set_no": 999,
        "meta_rev_at_epoch": 16749,
        "meta_bstar": 0,
        "meta_mean_motion_dot": 1.2e-07,
        "meta_mean_motion_ddot": 0,
        "tle_line1": "1 27663U 03005A   25342.66427427  .00000012  00000+0  00000+0 0  9997",
        "tle_line2": "2 27663  54.9243 222.5404 0147293  51.7448 318.8801  2.00571063167497"
      },
      "geometry": {
        "type": "Point",
        "coordinates": [
          -112.58032942288686,
          30.940766412986996
        ]
      }
    },
    {
      "type": "Feature",
      "properties": {
        "norad_id": 28190,
        "name": "GPS BIIR-11 (PRN 19)",
        "group": "gps-ops",
        "lat": -15.402783377292785,
        "lon": 114.46608218133427,
        "alt_km": 19937.97182026976,
        "timestamp": "2025-12-09T04:51:47.751913+00:00",
        "meta_object_name": "GPS BIIR-11 (PRN 19)",
        "meta_object_id": "2004-009A",
        "meta_epoch": "2025-12-08T00:54:44.996256",
        "meta_mean_motion": 2.00560848,
        "meta_eccentricity": 0.01082887,
        "meta_inclination": 54.99,
        "meta_ra_of_asc_node": 283.4084,
        "meta_arg_of_pericenter": 167.5613,
        "meta_mean_anomaly": 269.7716,
        "meta_ephemeris_type": 0,
        "meta_classification_type": "U",
        "meta_norad_cat_id": 28190,
        "meta_element_set_no": 999,
        "meta_rev_at_epoch": 15911,
        "meta_bstar": 0,
        "meta_mean_motion_dot": -4.5e-07,
        "meta_mean_motion_ddot": 0,
        "tle_line1": "1 28190U 04009A   25342.03802079 -.00000045  00000+0  00000+0 0  9996",
        "tle_line2": "2 28190  54.9900 283.4084 0108288 167.5613 269.7716  2.00560848159112"
      },
      "geometry": {
        "type": "Point",
        "coordinates": [
          114.46608218133427,
          -15.402783377292785
        ]
      }
    },
    {
      "type": "Feature",
      "properties": {
        "norad_id": 28474,
        "name": "GPS BIIR-13 (PRN 02)",
        "group": "gps-ops",
        "lat": -53.08368833147566,
        "lon": -139.92868358885448,
        "alt_km": 19904.88477851769,
        "timestamp": "2025-12-09T04:51:47.751925+00:00",
        "meta_object_name": "GPS BIIR-13 (PRN 02)",
        "meta_object_id": "2004-045A",
        "meta_epoch": "2025-12-08T12:02:32.207424",
        "meta_mean_motion": 2.00569196,
        "meta_eccentricity": 0.01706814,
        "meta_inclination": 55.2428,
        "meta_ra_of_asc_node": 332.5762,
        "meta_arg_of_pericenter": 309.0669,
        "meta_mean_anomaly": 163.0919,
        "meta_ephemeris_type": 0,
        "meta_classification_type": "U",
        "meta_norad_cat_id": 28474,
        "meta_element_set_no": 999,
        "meta_rev_at_epoch": 15460,
        "meta_bstar": 0,
        "meta_mean_motion_dot": -8.3e-07,
        "meta_mean_motion_ddot": 0,
        "tle_line1": "1 28474U 04045A   25342.50176166 -.00000083  00000+0  00000+0 0  9996",
        "tle_line2": "2 28474  55.2428 332.5762 0170681 309.0669 163.0919  2.00569196154600"
      },
      "geometry": {
        "type": "Point",
        "coordinates": [
          -139.92868358885448,
          -53.08368833147566
        ]
      }
    },
    {
      "type": "Feature",
      "properties": {
        "norad_id": 28874,
        "name": "GPS BIIRM-1 (PRN 17)",
        "group": "gps-ops",
        "lat": -28.470868344802554,
        "lon": 123.09925115574259,
        "alt_km": 20106.988418349993,
        "timestamp": "2025-12-09T04:51:47.751937+00:00",
        "meta_object_name": "GPS BIIRM-1 (PRN 17)",
        "meta_object_id": "2005-038A",
        "meta_epoch": "2025-12-08T01:59:22.553088",
        "meta_mean_motion": 2.00578599,
        "meta_eccentricity": 0.01317899,
        "meta_inclination": 55.0361,
        "meta_ra_of_asc_node": 280.8884,
        "meta_arg_of_pericenter": 293.3737,
        "meta_mean_anomaly": 195.059,
        "meta_ephemeris_type": 0,
        "meta_classification_type": "U",
        "meta_norad_cat_id": 28874,
        "meta_element_set_no": 999,
        "meta_rev_at_epoch": 14800,
        "meta_bstar": 0,
        "meta_mean_motion_dot": -4.3e-07,
        "meta_mean_motion_ddot": 0,
        "tle_line1": "1 28874U 05038A   25342.08289992 -.00000043  00000+0  00000+0 0  9994",
        "tle_line2": "2 28874  55.0361 280.8884 0131789 293.3737 195.0590  2.00578599148009"
      },
      "geometry": {
        "type": "Point",
        "coordinates": [
          123.09925115574259,
          -28.470868344802554
        ]
      }
    }
  ]
}